[{"OBJECT_NAME":"STARLINK-5741","OBJECT_ID":"2023-020P","EPOCH":"2026-03-08T05:01:06.379968","MEAN_MOTION":15.02536384,"ECCENTRICITY":0.00013508,"INCLINATION":43.0063,"RA_OF_ASC_NODE":359.9666,"ARG_OF_PERICENTER":260.7188,"MEAN_ANOMALY":99.3502,"EPHEMERIS_TYPE":0,"CLASSIFICATION_TYPE":"U","NORAD_CAT_ID":55582,"ELEMENT_SET_NO":999,"REV_AT_EPOCH":16884,"BSTAR":3.1944319e-5,"MEAN_MOTION_DOT":2.28e-6,"MEAN_MOTION_DDOT":0},{"OBJECT_NAME":"UNKNOWN","OBJECT_ID":"","EPOCH":"2026-03-08T16:53:53.910816","MEAN_MOTION":15.05228096,"ECCENTRICITY":0.0007208,"INCLINATION":85.8751,"RA_OF_ASC_NODE":153.385,"ARG_OF_PERICENTER":323.4201,"MEAN_ANOMALY":36.654,"EPHEMERIS_TYPE":0,"CLASSIFICATION_TYPE":"U","NORAD_CAT_ID":81343,"ELEMENT_SET_NO":999,"REV_AT_EPOCH":46724,"BSTAR":0.00071714,"MEAN_MOTION_DOT":0.00010274,"MEAN_MOTION_DDOT":0}]
